EXCITE                  
1 43819U 18099BP  26068.69809098  .00002813  00000+0  19631-3 0  9999
2 43819  97.4107 111.3606 0017626 337.4818  22.5634 15.06036758396774
STARLINK-5631           
1 55346U 23013R   26067.99020824 -.00001585  00000+0 -10228-3 0  9993
2 55346  43.0022 304.1820 0001458 265.7976  94.2700 15.02527015171609
